{
  "type": "FeatureCollection",
  "features": [
    {
      "type": "Feature",
      "properties": {
        "norad_id": 67089,
        "name": "STARLINK-35763",
        "group": "last-30-days",
        "lat": 2.556048270421385,
        "lon": -136.7227791765436,
        "alt_km": 306.4634727307266,
        "timestamp": "2025-12-22T11:33:19.158425+00:00",
        "meta_object_name": "STARLINK-35763",
        "meta_object_id": "2025-298Q",
        "meta_epoch": "2025-12-22T04:00:01.998720",
        "meta_mean_motion": 15.89266247,
        "meta_eccentricity": 0.0003637,
        "meta_inclination": 69.9973,
        "meta_ra_of_asc_node": 223.2557,
        "meta_arg_of_pericenter": 271.6395,
        "meta_mean_anomaly": 90.7069,
        "meta_ephemeris_type": 0,
        "meta_classification_type": "U",
        "meta_norad_cat_id": 67089,
        "meta_element_set_no": 999,
        "meta_rev_at_epoch": 249,
        "meta_bstar": 0.00025423,
        "meta_mean_motion_dot": 0.0007238,
        "meta_mean_motion_ddot": 5.7671e-06,
        "tle_line1": "1 67089U 25298Q   25356.16668980  .00072380  57671-5  25423-3 0  9991",
        "tle_line2": "2 67089  69.9973 223.2557 0003637 271.6395  90.7069 15.89266247  2499"
      },
      "geometry": {
        "type": "Point",
        "coordinates": [
          -136.7227791765436,
          2.556048270421385
        ]
      }
    },
    {
      "type": "Feature",
      "properties": {
        "norad_id": 67090,
        "name": "STARLINK-36060",
        "group": "last-30-days",
        "lat": 4.22767571148732,
        "lon": -136.11390162677833,
        "alt_km": 306.42294372818924,
        "timestamp": "2025-12-22T11:33:19.158435+00:00",
        "meta_object_name": "STARLINK-36060",
        "meta_object_id": "2025-298R",
        "meta_epoch": "2025-12-22T04:00:01.998720",
        "meta_mean_motion": 15.89273412,
        "meta_eccentricity": 0.0004072,
        "meta_inclination": 69.997,
        "meta_ra_of_asc_node": 223.2533,
        "meta_arg_of_pericenter": 267.8225,
        "meta_mean_anomaly": 96.2769,
        "meta_ephemeris_type": 0,
        "meta_classification_type": "U",
        "meta_norad_cat_id": 67090,
        "meta_element_set_no": 999,
        "meta_rev_at_epoch": 243,
        "meta_bstar": 0.00038056,
        "meta_mean_motion_dot": 0.00109011,
        "meta_mean_motion_ddot": 8.1137e-06,
        "tle_line1": "1 67090U 25298R   25356.16668980  .00109011  81137-5  38056-3 0  9995",
        "tle_line2": "2 67090  69.9970 223.2533 0004072 267.8225  96.2769 15.89273412  2439"
      },
      "geometry": {
        "type": "Point",
        "coordinates": [
          -136.11390162677833,
          4.22767571148732
        ]
      }
    },
    {
      "type": "Feature",
      "properties": {
        "norad_id": 67091,
        "name": "STARLINK-36097",
        "group": "last-30-days",
        "lat": 6.219537025803289,
        "lon": -135.38404800610925,
        "alt_km": 305.7648333343932,
        "timestamp": "2025-12-22T11:33:19.158447+00:00",
        "meta_object_name": "STARLINK-36097",
        "meta_object_id": "2025-298S",
        "meta_epoch": "2025-12-22T04:00:01.998720",
        "meta_mean_motion": 15.89386243,
        "meta_eccentricity": 0.0003607,
        "meta_inclination": 69.9971,
        "meta_ra_of_asc_node": 223.2511,
        "meta_arg_of_pericenter": 273.2184,
        "meta_mean_anomaly": 92.9017,
        "meta_ephemeris_type": 0,
        "meta_classification_type": "U",
        "meta_norad_cat_id": 67091,
        "meta_element_set_no": 999,
        "meta_rev_at_epoch": 249,
        "meta_bstar": 0.00015655,
        "meta_mean_motion_dot": 0.00044368,
        "meta_mean_motion_ddot": 4.6165e-06,
        "tle_line1": "1 67091U 25298S   25356.16668980  .00044368  46165-5  15655-3 0  9991",
        "tle_line2": "2 67091  69.9971 223.2511 0003607 273.2184  92.9017 15.89386243  2497"
      },
      "geometry": {
        "type": "Point",
        "coordinates": [
          -135.38404800610925,
          6.219537025803289
        ]
      }
    },
    {
      "type": "Feature",
      "properties": {
        "norad_id": 67092,
        "name": "STARLINK-35792",
        "group": "last-30-days",
        "lat": 7.878298404522592,
        "lon": -134.77211259084916,
        "alt_km": 305.44081277525675,
        "timestamp": "2025-12-22T11:33:19.158458+00:00",
        "meta_object_name": "STARLINK-35792",
        "meta_object_id": "2025-298T",
        "meta_epoch": "2025-12-22T04:00:01.998720",
        "meta_mean_motion": 15.89423865,
        "meta_eccentricity": 0.0003846,
        "meta_inclination": 69.9971,
        "meta_ra_of_asc_node": 223.2489,
        "meta_arg_of_pericenter": 274.1619,
        "meta_mean_anomaly": 93.6734,
        "meta_ephemeris_type": 0,
        "meta_classification_type": "U",
        "meta_norad_cat_id": 67092,
        "meta_element_set_no": 999,
        "meta_rev_at_epoch": 243,
        "meta_bstar": 0.00021225,
        "meta_mean_motion_dot": 0.00060715,
        "meta_mean_motion_ddot": 5.2241e-06,
        "tle_line1": "1 67092U 25298T   25356.16668980  .00060715  52241-5  21225-3 0  9998",
        "tle_line2": "2 67092  69.9971 223.2489 0003846 274.1619  93.6734 15.89423865  2430"
      },
      "geometry": {
        "type": "Point",
        "coordinates": [
          -134.77211259084916,
          7.878298404522592
        ]
      }
    },
    {
      "type": "Feature",
      "properties": {
        "norad_id": 67093,
        "name": "STARLINK-35784",
        "group": "last-30-days",
        "lat": 9.759889769676722,
        "lon": -134.07137961513277,
        "alt_km": 305.76431928923375,
        "timestamp": "2025-12-22T11:33:19.158469+00:00",
        "meta_object_name": "STARLINK-35784",
        "meta_object_id": "2025-298U",
        "meta_epoch": "2025-12-22T04:00:01.998720",
        "meta_mean_motion": 15.89499327,
        "meta_eccentricity": 0.0003692,
        "meta_inclination": 69.9969,
        "meta_ra_of_asc_node": 223.2465,
        "meta_arg_of_pericenter": 261.4694,
        "meta_mean_anomaly": 108.3305,
        "meta_ephemeris_type": 0,
        "meta_classification_type": "U",
        "meta_norad_cat_id": 67093,
        "meta_element_set_no": 999,
        "meta_rev_at_epoch": 249,
        "meta_bstar": -0.00018233,
        "meta_mean_motion_dot": -0.00054653,
        "meta_mean_motion_ddot": 4.8669e-06,
        "tle_line1": "1 67093U 25298U   25356.16668980 -.00054653  48669-5 -18233-3 0  9999",
        "tle_line2": "2 67093  69.9969 223.2465 0003692 261.4694 108.3305 15.89499327  2493"
      },
      "geometry": {
        "type": "Point",
        "coordinates": [
          -134.07137961513277,
          9.759889769676722
        ]
      }
    },
    {
      "type": "Feature",
      "properties": {
        "norad_id": 67094,
        "name": "STARLINK-36202",
        "group": "last-30-days",
        "lat": 11.817794619220239,
        "lon": -133.2950153106028,
        "alt_km": 304.6402032278211,
        "timestamp": "2025-12-22T11:33:19.158479+00:00",
        "meta_object_name": "STARLINK-36202",
        "meta_object_id": "2025-298V",
        "meta_epoch": "2025-12-22T04:00:01.998720",
        "meta_mean_motion": 15.89660814,
        "meta_eccentricity": 0.0004779,
        "meta_inclination": 69.9968,
        "meta_ra_of_asc_node": 223.2441,
        "meta_arg_of_pericenter": 279.4478,
        "meta_mean_anomaly": 92.4006,
        "meta_ephemeris_type": 0,
        "meta_classification_type": "U",
        "meta_norad_cat_id": 67094,
        "meta_element_set_no": 999,
        "meta_rev_at_epoch": 249,
        "meta_bstar": -0.0006736,
        "meta_mean_motion_dot": -0.00200238,
        "meta_mean_motion_ddot": 1.6948e-05,
        "tle_line1": "1 67094U 25298V   25356.16668980 -.00200238  16948-4 -67360-3 0  9991",
        "tle_line2": "2 67094  69.9968 223.2441 0004779 279.4478  92.4006 15.89660814  2495"
      },
      "geometry": {
        "type": "Point",
        "coordinates": [
          -133.2950153106028,
          11.817794619220239
        ]
      }
    },
    {
      "type": "Feature",
      "properties": {
        "norad_id": 67095,
        "name": "STARLINK-36227",
        "group": "last-30-days",
        "lat": 13.671405008883939,
        "lon": -132.58542393719068,
        "alt_km": 304.36305997596173,
        "timestamp": "2025-12-22T11:33:19.158491+00:00",
        "meta_object_name": "STARLINK-36227",
        "meta_object_id": "2025-298W",
        "meta_epoch": "2025-12-22T04:00:01.998720",
        "meta_mean_motion": 15.89701954,
        "meta_eccentricity": 0.0003475,
        "meta_inclination": 69.9967,
        "meta_ra_of_asc_node": 223.2414,
        "meta_arg_of_pericenter": 277.2963,
        "meta_mean_anomaly": 96.5012,
        "meta_ephemeris_type": 0,
        "meta_classification_type": "U",
        "meta_norad_cat_id": 67095,
        "meta_element_set_no": 999,
        "meta_rev_at_epoch": 243,
        "meta_bstar": -0.00069405,
        "meta_mean_motion_dot": -0.00206602,
        "meta_mean_motion_ddot": 1.7787e-05,
        "tle_line1": "1 67095U 25298W   25356.16668980 -.00206602  17787-4 -69405-3 0  9997",
        "tle_line2": "2 67095  69.9967 223.2414 0003475 277.2963  96.5012 15.89701954  2439"
      },
      "geometry": {
        "type": "Point",
        "coordinates": [
          -132.58542393719068,
          13.671405008883939
        ]
      }
    }
  ]
}